{"type": "FeatureCollection", "features": [ {"type": "Feature", "properties": {"norad_id": 34732, "name": "COSMOS 2251 DEB", "group": "cosmos-2251-debris", "lat": -68.55362997659331, "lon": 64.09775190759628, "alt_km": 714.557361633747, "timestamp": "2025-12-03T06:58:43.637059+00:00", "meta": {"OBJECT_NAME": "COSMOS 2251 DEB", "OBJECT_ID": "1993-036ZA", "EPOCH": "2025-12-02T02:01:16.053312", "MEAN_MOTION": 14.47279623, "ECCENTRICITY": 0.00404868, "INCLINATION": 74.044, "RA_OF_ASC_NODE": 113.0964, "ARG_OF_PERICENTER": 266.0706, "MEAN_ANOMALY": 214.3828, "EPHEMERIS_TYPE": 0, "CLASSIFICATION_TYPE": "U", "NORAD_CAT_ID": 34732, "ELEMENT_SET_NO": 999, "REV_AT_EPOCH": 87989, "BSTAR": 0.0001843837, "MEAN_MOTION_DOT": 6.53e-06, "MEAN_MOTION_DDOT": 0}, "tle": {"line1": "1 34732U 93036ZA  25336.08421358  .00000653  00000+0  18438-3 0  9990", "line2": "2 34732  74.0440 113.0964 0040486 266.0706 214.3828 14.47279623879897"}}, "geometry": {"type": "Point", "coordinates": [64.09775190759628, -68.55362997659331]}}, {"type": "Feature", "properties": {"norad_id": 34736, "name": "COSMOS 2251 DEB", "group": "cosmos-2251-debris", "lat": 31.494694417938394, "lon": 66.91207007317324, "alt_km": 439.51213577215276, "timestamp": "2025-12-03T06:58:43.637069+00:00", "meta": {"OBJECT_NAME": "COSMOS 2251 DEB", "OBJECT_ID": "1993-036ZE", "EPOCH": "2025-12-02T15:13:54.959232", "MEAN_MOTION": 15.38442922, "ECCENTRICITY": 0.00147134, "INCLINATION": 74.0053, "RA_OF_ASC_NODE": 58.2071, "ARG_OF_PERICENTER": 355.616, "MEAN_ANOMALY": 4.4916, "EPHEMERIS_TYPE": 0, "CLASSIFICATION_TYPE": "U", "NORAD_CAT_ID": 34736, "ELEMENT_SET_NO": 999, "REV_AT_EPOCH": 88292, "BSTAR": 0.0093586267, "MEAN_MOTION_DOT": 0.00373994, "MEAN_MOTION_DDOT": 0}, "tle": {"line1": "1 34736U 93036ZE  25336.63466388  .00373994  00000+0  93586-2 0  9994", "line2": "2 34736  74.0053  58.2071 0014713 355.6160   4.4916 15.38442922882922"}}, "geometry": {"type": "Point", "coordinates": [66.91207007317324, 31.494694417938394]}}, {"type": "Feature", "properties": {"norad_id": 34738, "name": "COSMOS 2251 DEB", "group": "cosmos-2251-debris", "lat": -8.588647412642397, "lon": 158.44448264722647, "alt_km": 716.6429722886087, "timestamp": "2025-12-03T06:58:43.637079+00:00", "meta": {"OBJECT_NAME": "COSMOS 2251 DEB", "OBJECT_ID": "1993-036ZG", "EPOCH": "2025-12-02T14:43:42.099744", "MEAN_MOTION": 14.46263711, "ECCENTRICITY": 0.00471125, "INCLINATION": 74.0141, "RA_OF_ASC_NODE": 162.191, "ARG_OF_PERICENTER": 310.3802, "MEAN_ANOMALY": 116.5033, "EPHEMERIS_TYPE": 0, "CLASSIFICATION_TYPE": "U", "NORAD_CAT_ID": 34738, "ELEMENT_SET_NO": 999, "REV_AT_EPOCH": 87712, "BSTAR": 0.00036862603, "MEAN_MOTION_DOT": 1.31e-05, "MEAN_MOTION_DDOT": 0}, "tle": {"line1": "1 34738U 93036ZG  25336.61368171  .00001310  00000+0  36863-3 0  9991", "line2": "2 34738  74.0141 162.1910 0047112 310.3802 116.5033 14.46263711877125"}}, "geometry": {"type": "Point", "coordinates": [158.44448264722647, -8.588647412642397]}}, {"type": "Feature", "properties": {"norad_id": 34750, "name": "COSMOS 2251 DEB", "group": "cosmos-2251-debris", "lat": -0.0009841889243643624, "lon": -140.26252554650756, "alt_km": 719.7643602843273, "timestamp": "2025-12-03T06:58:43.637089+00:00", "meta": {"OBJECT_NAME": "COSMOS 2251 DEB", "OBJECT_ID": "1993-036ZU", "EPOCH": "2025-12-02T18:05:44.373984", "MEAN_MOTION": 14.61160095, "ECCENTRICITY": 0.0039308, "INCLINATION": 74.1086, "RA_OF_ASC_NODE": 220.759, "ARG_OF_PERICENTER": 177.1595, "MEAN_ANOMALY": 240.5028, "EPHEMERIS_TYPE": 0, "CLASSIFICATION_TYPE": "U", "NORAD_CAT_ID": 34750, "ELEMENT_SET_NO": 999, "REV_AT_EPOCH": 88085, "BSTAR": 0.0013652, "MEAN_MOTION_DOT": 6.771e-05, "MEAN_MOTION_DDOT": 0}, "tle": {"line1": "1 34750U 93036ZU  25336.75398581  .00006771  00000+0  13652-2 0  9994", "line2": "2 34750  74.1086 220.7590 0039308 177.1595 240.5028 14.61160095880853"}}, "geometry": {"type": "Point", "coordinates": [-140.26252554650756, -0.0009841889243643624]}}, {"type": "Feature", "properties": {"norad_id": 34752, "name": "COSMOS 2251 DEB", "group": "cosmos-2251-debris", "lat": -73.7974052489342, "lon": -60.762976876866816, "alt_km": 592.4831952959794, "timestamp": "2025-12-03T06:58:43.637099+00:00", "meta": {"OBJECT_NAME": "COSMOS 2251 DEB", "OBJECT_ID": "1993-036ZW", "EPOCH": "2025-12-02T20:09:47.467008", "MEAN_MOTION": 14.99556229, "ECCENTRICITY": 0.0048499, "INCLINATION": 74.0144, "RA_OF_ASC_NODE": 20.7477, "ARG_OF_PERICENTER": 152.5113, "MEAN_ANOMALY": 207.8655, "EPHEMERIS_TYPE": 0, "CLASSIFICATION_TYPE": "U", "NORAD_CAT_ID": 34752, "ELEMENT_SET_NO": 999, "REV_AT_EPOCH": 89701, "BSTAR": 0.0011465, "MEAN_MOTION_DOT": 0.00014438, "MEAN_MOTION_DDOT": 0}, "tle": {"line1": "1 34752U 93036ZW  25336.84013272  .00014438  00000+0  11465-2 0  9996", "line2": "2 34752  74.0144  20.7477 0048499 152.5113 207.8655 14.99556229897012"}}, "geometry": {"type": "Point", "coordinates": [-60.762976876866816, -73.7974052489342]}}, {"type": "Feature", "properties": {"norad_id": 34754, "name": "COSMOS 2251 DEB", "group": "cosmos-2251-debris", "lat": 70.53155175968716, "lon": 10.980086203751128, "alt_km": 752.6845095553235, "timestamp": "2025-12-03T06:58:43.637109+00:00", "meta": {"OBJECT_NAME": "COSMOS 2251 DEB", "OBJECT_ID": "1993-036ZY", "EPOCH": "2025-12-02T19:06:22.466304", "MEAN_MOTION": 14.40456964, "ECCENTRICITY": 0.0029137, "INCLINATION": 74.0309, "RA_OF_ASC_NODE": 245.9944, "ARG_OF_PERICENTER": 4.1726, "MEAN_ANOMALY": 52.497, "EPHEMERIS_TYPE": 0, "CLASSIFICATION_TYPE": "U", "NORAD_CAT_ID": 34754, "ELEMENT_SET_NO": 999, "REV_AT_EPOCH": 87990, "BSTAR": 0.00029606, "MEAN_MOTION_DOT": 9.19e-06, "MEAN_MOTION_DDOT": 0}, "tle": {"line1": "1 34754U 93036ZY  25336.79609336  .00000919  00000+0  29606-3 0  9990", "line2": "2 34754  74.0309 245.9944 0029137   4.1726  52.4970 14.40456964879900"}}, "geometry": {"type": "Point", "coordinates": [10.980086203751128, 70.53155175968716]}}, {"type": "Feature", "properties": {"norad_id": 34755, "name": "COSMOS 2251 DEB", "group": "cosmos-2251-debris", "lat": 28.396714654796604, "lon": -45.81587003253889, "alt_km": 921.4084398491987, "timestamp": "2025-12-03T06:58:43.637119+00:00", "meta": {"OBJECT_NAME": "COSMOS 2251 DEB", "OBJECT_ID": "1993-036ZZ", "EPOCH": "2025-11-28T15:26:25.154880", "MEAN_MOTION": 13.50483978, "ECCENTRICITY": 0.04082229, "INCLINATION": 73.9254, "RA_OF_ASC_NODE": 312.682, "ARG_OF_PERICENTER": 334.9897, "MEAN_ANOMALY": 144.2013, "EPHEMERIS_TYPE": 0, "CLASSIFICATION_TYPE": "U", "NORAD_CAT_ID": 34755, "ELEMENT_SET_NO": 999, "REV_AT_EPOCH": 82333, "BSTAR": 0.001766679, "MEAN_MOTION_DOT": 1.881e-05, "MEAN_MOTION_DDOT": 0}, "tle": {"line1": "1 34755U 93036ZZ  25332.64334670  .00001881  00000+0  17667-2 0  9999", "line2": "2 34755  73.9254 312.6820 0408222 334.9897 144.2013 13.50483978823331"}}, "geometry": {"type": "Point", "coordinates": [-45.81587003253889, 28.396714654796604]}}, {"type": "Feature", "properties": {"norad_id": 34756, "name": "COSMOS 2251 DEB", "group": "cosmos-2251-debris", "lat": 73.91865866683092, "lon": -155.74666897274074, "alt_km": 996.2997409042891, "timestamp": "2025-12-03T06:58:43.637130+00:00", "meta": {"OBJECT_NAME": "COSMOS 2251 DEB", "OBJECT_ID": "1993-036AAA", "EPOCH": "2025-12-02T16:31:05.981088", "MEAN_MOTION": 13.67210106, "ECCENTRICITY": 0.0344553, "INCLINATION": 74.0021, "RA_OF_ASC_NODE": 120.8981, "ARG_OF_PERICENTER": 358.9057, "MEAN_ANOMALY": 1.1264, "EPHEMERIS_TYPE": 0, "CLASSIFICATION_TYPE": "U", "NORAD_CAT_ID": 34756, "ELEMENT_SET_NO": 999, "REV_AT_EPOCH": 83284, "BSTAR": 0.0010551, "MEAN_MOTION_DOT": 1.312e-05, "MEAN_MOTION_DDOT": 0}, "tle": {"line1": "1 34756U 93036AAA 25336.68826367  .00001312  00000+0  10551-2 0  9991", "line2": "2 34756  74.0021 120.8981 0344553 358.9057   1.1264 13.67210106832847"}}, "geometry": {"type": "Point", "coordinates": [-155.74666897274074, 73.91865866683092]}}, {"type": "Feature", "properties": {"norad_id": 34758, "name": "COSMOS 2251 DEB", "group": "cosmos-2251-debris", "lat": 25.545539833341333, "lon": 126.87717597263715, "alt_km": 947.238935884242, "timestamp": "2025-12-03T06:58:43.637140+00:00", "meta": {"OBJECT_NAME": "COSMOS 2251 DEB", "OBJECT_ID": "1993-036AAC", "EPOCH": "2025-12-02T16:07:28.424928", "MEAN_MOTION": 13.5802701, "ECCENTRICITY": 0.0380653, "INCLINATION": 74.1071, "RA_OF_ASC_NODE": 315.6989, "ARG_OF_PERICENTER": 81.8459, "MEAN_ANOMALY": 282.5637, "EPHEMERIS_TYPE": 0, "CLASSIFICATION_TYPE": "U", "NORAD_CAT_ID": 34758, "ELEMENT_SET_NO": 999, "REV_AT_EPOCH": 82773, "BSTAR": 0.0011882, "MEAN_MOTION_DOT": 1.36e-05, "MEAN_MOTION_DDOT": 0}, "tle": {"line1": "1 34758U 93036AAC 25336.67185677  .00001360  00000+0  11882-2 0  9995", "line2": "2 34758  74.1071 315.6989 0380653  81.8459 282.5637 13.58027010827737"}}, "geometry": {"type": "Point", "coordinates": [126.87717597263715, 25.545539833341333]}}, {"type": "Feature", "properties": {"norad_id": 34760, "name": "COSMOS 2251 DEB", "group": "cosmos-2251-debris", "lat": 64.42770278880562, "lon": 102.55749788797966, "alt_km": 827.7212857848863, "timestamp": "2025-12-03T06:58:43.637150+00:00", "meta": {"OBJECT_NAME": "COSMOS 2251 DEB", "OBJECT_ID": "1993-036AAE", "EPOCH": "2025-12-02T15:48:08.179200", "MEAN_MOTION": 14.19524364, "ECCENTRICITY": 0.00962533, "INCLINATION": 74.0627, "RA_OF_ASC_NODE": 320.3503, "ARG_OF_PERICENTER": 14.8263, "MEAN_ANOMALY": 104.0636, "EPHEMERIS_TYPE": 0, "CLASSIFICATION_TYPE": "U", "NORAD_CAT_ID": 34760, "ELEMENT_SET_NO": 999, "REV_AT_EPOCH": 86545, "BSTAR": 0.00087310198, "MEAN_MOTION_DOT": 1.903e-05, "MEAN_MOTION_DDOT": 0}, "tle": {"line1": "1 34760U 93036AAE 25336.65842800  .00001903  00000+0  87310-3 0  9997", "line2": "2 34760  74.0627 320.3503 0096253  14.8263 104.0636 14.19524364865450"}}, "geometry": {"type": "Point", "coordinates": [102.55749788797966, 64.42770278880562]}}]}